HELIOS 1B               
1 25977U 99064A   20207.08580138  .00000019  00000-0  95382-5 0  9994
2 25977  98.2855   3.2896 0001091 153.5981 206.5287 14.82486141111990
TERRA                   
1 25994U 99068A   20207.48804247  .00000087  00000-0  29475-4 0  9995
2 25994  98.2125 281.2428 0001189  98.5001 261.6339 14.57110953 95850
SL-16 R/B               
1 26070U 00006B   20206.40969190 -.00000301  00000-0 -12963-3 0  9999
2 26070  71.0031  95.5968 0014487  64.2139 296.0477 14.15466940 57861
MTI                     
1 26102U 00014A   20207.24507302  .00002691  00000-0  40134-4 0  9994
2 26102  97.4984  91.3071 0009402  88.0169 272.2182 15.56033596130395
TITAN 4B R/B            
1 26474U 00047B   20206.62670326  .00000026  00000-0  13209-4 0  9993
2 26474  67.9950 333.3677 0054274 161.4601 198.8536 14.95969659 84885
ENVISAT                 
1 27386U 02009A   20207.43016683 -.00000012  00000-0  95295-5 0  9998
2 27386  98.1359 212.4821 0001425  91.4831  44.6750 14.37986851964075
IDEFIX & ARIANE 42P R/B 
1 27422U 02021B   20207.46827449 -.00000014  00000-0  10800-4 0  9996
2 27422  98.3534 166.9676 0013328 115.6736 244.5825 14.29291149948708
AQUA                    
1 27424U 02022A   20207.46020578  .00000050  00000-0  21061-4 0  9997
2 27424  98.2102 147.5478 0000743 147.2552 324.5982 14.57110854969451
CZ-4B R/B               
1 27432U 02024C   20207.48576566 -.00000040  00000-0  30285-5 0  9992
2 27432  99.0879 210.3245 0051451  69.4955  42.9812 14.14095277939101
MIDORI II (ADEOS-II)    
1 27597U 02056A   20206.61711484  .00000012  00000-0  22185-4 0  9990
2 27597  98.5214 153.2735 0000470 128.4733 231.6490 14.27453337917119
H-2A R/B                
1 27601U 02056E   20207.38865098  .00000030  00000-0  25615-4 0  9993
2 27601  98.2235 241.2057 0072556 163.7118 207.5061 14.31959946920126
CZ-4B R/B               
1 28059U 03049C   20206.51959443 -.00000011  00000-0  89745-5 0  9991
2 28059  98.4843 123.4682 0050726  26.5351 333.8424 14.52604932888197
CZ-2C R/B               
1 28222U 04012C   20207.48587015  .00000235  00000-0  18160-4 0  9992
2 28222  97.6796 170.1356 0045463 259.7659 212.6212 15.10424070891772
SL-16 R/B               
1 28353U 04021B   20206.48213957 -.00000179  00000-0 -68768-4 0  9995
2 28353  70.9995 221.6658 0007725 277.3876  82.6369 14.14237373832375
CZ-4B R/B               
1 28415U 04035C   20206.35649741 -.00000226  00000-0 -10336-4 0  9990
2 28415  97.6107 247.5248 0050375 225.4458 134.2651 15.06878441869193
CZ-2C R/B               
1 28480U 04046B   20207.10281347 -.00000004  00000-0  13158-4 0  9990
2 28480  98.0759 239.1283 0143137 113.4491 308.7154 14.25725978815802
ARIANE 5 R/B            
1 28499U 04049H   20207.30158834  .00000041  00000-0  12288-4 0  9992
2 28499  98.0574 309.2009 0092893 150.2344 272.8665 14.80036698841734
CZ-2D R/B               
1 28738U 05024B   20207.03586981  .00000175  00000-0  13804-4 0  9993
2 28738  97.3808 228.3609 0013377  58.5398 301.7138 15.12063729827101
SUZAKU (ASTRO-EII)      
1 28773U 05025A   20207.10422827  .00000563  00000-0  23003-4 0  9992
2 28773  31.3818 131.8381 0004710 227.0781 132.9471 15.17604088829665
ALOS (DAICHI)           
1 28931U 06002A   20207.51831265  .00000090  00000-0  26288-4 0  9992
2 28931  97.8477 191.3879 0001563  38.9076 321.2231 14.62725114773265
H-2A R/B                
1 28932U 06002B   20207.00032348  .00000375  00000-0  40627-4 0  9991
2 28932  98.3231 199.1497 0088190 197.8943 227.0704 14.92248088786851
AKARI (ASTRO-F)         
1 28939U 06005A   20206.88161133  .00001029  00000-0  29845-4 0  9997
2 28939  98.2342 185.2968 0092562 192.3588 167.5382 15.34414555786639
RESURS-DK 1             
1 29228U 06021A   20206.42920809  .00000016  00000-0  85011-5 0  9993
2 29228  69.9361  93.8719 0003370   3.5850 356.5334 15.02552813778306
GENESIS 1               
1 29252U 06029A   20206.62837515  .00000229  00000-0  21023-4 0  9999
2 29252  64.5226 179.9918 0004415 164.6672 195.4586 15.18172687773749
CZ-4B R/B               
1 29507U 06046C   20207.29818960 -.00000525  00000-0 -35576-4 0  9997
2 29507  97.7558 229.1196 0047181  39.4150 321.0491 15.00653404751099
CZ-2C R/B               
1 31114U 07010B   20206.45650669 -.00000026  00000-0  62187-5 0  9997
2 31114  98.2578  56.8413 0060118 158.2436 202.1315 14.19326404688261
COSMO-SKYMED 1          
1 31598U 07023A   20207.48626045  .00000304  00000-0  44796-4 0  9995
2 31598  97.8850  30.0937 0001437  90.9461 269.1925 14.82157147710463
GENESIS 2               
1 31789U 07028A   20207.13062008 -.00000097  00000-0  57819-5 0  9998
2 31789  64.5014 220.0120 0041143 237.1347 122.5813 15.17295174720886
COSMOS 2428             
1 31792U 07029A   20207.38726132 -.00000344  00000-0 -16036-3 0  9995
2 31792  70.9070 193.3087 0009714 359.5328   0.5781 14.12313507674223
SL-16 R/B               
1 31793U 07029B   20207.11427050 -.00000283  00000-0 -12259-3 0  9999
2 31793  70.9747 167.2495 0002727 263.7866 174.9974 14.14430365675054
KORONAS-FOTON           
1 33504U 09003A   20207.06643865  .00000170  00000-0  71971-5 0  9994
2 33504  82.4418 185.3977 0020009 144.8816 215.3740 15.15667926633188
H-2A R/B                
1 38341U 12025E   20207.40827501  .00000129  00000-0  22546-4 0  9992
2 38341  98.5045   4.8895 0056706 109.6189 251.1156 14.84050270443085
CUSAT 2 & FALCON 9 R/B  
1 39271U 13055G   20206.50212780  .00004995  00000-0  11805-3 0  9996
2 39271  80.9641 227.1561 0588151  58.8949 306.8582 14.48367669356096
SL-4 R/B                
1 39679U 14021B   20207.45907535 -.00000110  00000-0  13365-4 0  9996
2 39679  51.6158 291.0442 0172361  77.5161 284.5032 15.06447191345072
ALOS-2                  
1 39766U 14029A   20207.45316457 -.00000067  00000-0 -21487-5 0  9995
2 39766  97.9235 303.5071 0001506  94.7884 265.3515 14.79469744333314
CZ-2C R/B               
1 40306U 14071B   20206.61545683  .00002093  00000-0  45842-4 0  9995
2 40306  97.3266 153.4643 0016629  36.0981 324.1387 15.45170510319588
SL-27 R/B               
1 40354U 14084B   20206.87458064  .00000621  00000-0  16393-4 0  9990
2 40354  74.7389 310.6747 0036353 121.6454 238.8313 15.40271077313893
YAOGAN 29               
1 41038U 15069A   20207.42321348 -.00000004  00000-0  64148-5 0  9998
2 41038  98.0122 195.3358 0002117 101.9770 258.1680 14.80453483251895
ASTRO-H (HITOMI)        
1 41337U 16012A   20206.89577304  .00000187  00000-0  82538-5 0  9998
2 41337  31.0051 132.3573 0012262  81.4075 278.7948 14.98693807243124
SHENZHOU-11 MODULE      
1 41868U 16061G   20206.44218567  .00045422  93241-5  81052-4 0  9999
2 41868  42.7850 265.0949 0012955  56.5933  63.6538 16.01626359211995
HXMT (HUIYAN)           
1 42758U 17034A   20207.40665466 -.00000073  00000-0  91583-5 0  9991
2 42758  43.0171 187.7856 0012102 269.6309 251.2373 15.08853287171602
CZ-2C R/B               
1 43521U 18054D   20206.61108472  .00000208  00000-0  13700-4 0  9997
2 43521  35.1541 310.9620 0082032  85.2720 275.7356 15.11024640114775
AEOLUS                  
1 43600U 18066A   20207.44871338  .00028462  00000-0  11202-3 0  9994
2 43600  96.7193 213.2728 0002991 101.4232 258.7377 15.86845878111393
SAOCOM 1A               
1 43641U 18076A   20207.49447458 -.00000007  00000-0  57366-5 0  9996
2 43641  97.8890  33.0630 0001396  80.3782 279.7596 14.82152172 97232
CREW DRAGON DEMO-1 DEB  
1 44064U 19011B   20207.13409267  .00010510  00000-0  10743-3 0  9998
2 44064  51.6342 121.4226 0002856 180.5405 179.5588 15.65665672 78819
